$$SOE
2460721.500000000, A.D. 2025-Feb-15 00:00:00.0000, 1.163012425684960E+08, -3.498991411791778E+08, -1.011641478350920E+08,
2460728.500000000, A.D. 2025-Feb-22 00:00:00.0000, 1.264770678226699E+08, -3.488595539750701E+08, -9.801941255891784E+07,
2460735.500000000, A.D. 2025-Mar-01 00:00:00.0000, 1.365443179084562E+08, -3.475204881513232E+08, -9.479050970694958E+07,
2460742.500000000, A.D. 2025-Mar-08 00:00:00.0000, 1.464956437401434E+08, -3.458863825070906E+08, -9.148110942245467E+07,
2460749.500000000, A.D. 2025-Mar-15 00:00:00.0000, 1.563239281422363E+08, -3.439617617150226E+08, -8.809485265448922E+07,
2460756.500000000, A.D. 2025-Mar-22 00:00:00.0000, 1.660222760533234E+08, -3.417512288961902E+08, -8.463535030322026E+07,
2460763.500000000, A.D. 2025-Mar-29 00:00:00.0000, 1.755840062385134E+08, -3.392594610739841E+08, -8.110618287269172E+07,
2460770.500000000, A.D. 2025-Apr-05 00:00:00.0000, 1.850026448550521E+08, -3.364912043331566E+08, -7.751090038681003E+07,
2460777.500000000, A.D. 2025-Apr-12 00:00:00.0000, 1.942719189609265E+08, -3.334512685469646E+08, -7.385302236719736E+07,
2460784.500000000, A.D. 2025-Apr-19 00:00:00.0000, 2.033857497920428E+08, -3.301445225215820E+08, -7.013603791248693E+07,
2460791.500000000, A.D. 2025-Apr-26 00:00:00.0000, 2.123382460903098E+08, -3.265758897299337E+08, -6.636340590638529E+07,
2460798.500000000, A.D. 2025-May-03 00:00:00.0000, 2.211236976050452E+08, -3.227503445866136E+08, -6.253855535026290E+07,
2460805.500000000, A.D. 2025-May-10 00:00:00.0000, 2.297365688030365E+08, -3.186729092275527E+08, -5.866488581001484E+07,
2460812.500000000, A.D. 2025-May-17 00:00:00.0000, 2.381714928291907E+08, -3.143486508087589E+08, -5.474576797260252E+07,
2460819.500000000, A.D. 2025-May-24 00:00:00.0000, 2.464232658965837E+08, -3.097826793533629E+08, -5.078454432240519E+07,
2460826.500000000, A.D. 2025-May-31 00:00:00.0000, 2.544868425283940E+08, -3.049801458141505E+08, -4.678452994103467E+07,
2460833.500000000, A.D. 2025-Jun-07 00:00:00.0000, 2.623573312529886E+08, -2.999462391283752E+08, -4.274901328651026E+07,
2460840.500000000, A.D. 2025-Jun-14 00:00:00.0000, 2.700299883853279E+08, -2.946861829127781E+08, -3.868125678037596E+07,
2460847.500000000, A.D. 2025-Jun-21 00:00:00.0000, 2.775002111069565E+08, -2.892052350469589E+08, -3.458449757305287E+07,
2460854.500000000, A.D. 2025-Jun-28 00:00:00.0000, 2.847635329717140E+08, -2.835086883561113E+08, -3.046194862314036E+07,
2460861.500000000, A.D. 2025-Jul-05 00:00:00.0000, 2.918156203239507E+08, -2.776018702169037E+08, -2.631679977015549E+07,
2460868.500000000, A.D. 2025-Jul-12 00:00:00.0000, 2.986522684430412E+08, -2.714901418775177E+08, -2.215221875292554E+07,
2460875.500000000, A.D. 2025-Jul-19 00:00:00.0000, 3.052693976070628E+08, -2.651788980564430E+08, -1.797135223349836E+07,
2460882.500000000, A.D. 2025-Jul-26 00:00:00.0000, 3.116630492861159E+08, -2.586735668676815E+08, -1.377732684541394E+07,
2460889.500000000, A.D. 2025-Aug-02 00:00:00.0000, 3.178293825287392E+08, -2.519796100414757E+08, -9.573250265242368E+06,
2460896.500000000, A.D. 2025-Aug-09 00:00:00.0000, 3.237646705611902E+08, -2.451025234448596E+08, -5.362212305572391E+06,
2460903.500000000, A.D. 2025-Aug-16 00:00:00.0000, 3.294652976718833E+08, -2.380478379533921E+08, -1.147286037103236E+06,
2460910.500000000, A.D. 2025-Aug-23 00:00:00.0000, 3.349277566697811E+08, -2.308211206440668E+08, 3.068471038447589E+06,
2460917.500000000, A.D. 2025-Aug-30 00:00:00.0000, 3.401486472453642E+08, -2.234279755823798E+08, 7.282015796049848E+06,
2460924.500000000, A.D. 2025-Sep-06 00:00:00.0000, 3.451246738186071E+08, -2.158740431940198E+08, 1.149031849064086E+07,
2460931.500000000, A.D. 2025-Sep-13 00:00:00.0000, 3.498526412044870E+08, -2.081650006970105E+08, 1.569036190921068E+07,
2460938.500000000, A.D. 2025-Sep-20 00:00:00.0000, 3.543294513690585E+08, -2.003065652303545E+08, 1.987914023958751E+07,
2460945.500000000, A.D. 2025-Sep-27 00:00:00.0000, 3.585521023365514E+08, -1.923044965597936E+08, 2.405365781578477E+07,
2460952.500000000, A.D. 2025-Oct-04 00:00:00.0000, 3.625176872339446E+08, -1.841645988161513E+08, 2.821092797201527E+07,
2460959.500000000, A.D. 2025-Oct-11 00:00:00.0000, 3.662233931016643E+08, -1.758927222047318E+08, 3.234797196570526E+07,
2460966.500000000, A.D. 2025-Oct-18 00:00:00.0000, 3.696664997558135E+08, -1.674947649552814E+08, 3.646181792407177E+07,
2460973.500000000, A.D. 2025-Oct-25 00:00:00.0000, 3.728443788433944E+08, -1.589766754962059E+08, 4.054949980524378E+07,
2460980.500000000, A.D. 2025-Nov-01 00:00:00.0000, 3.757544931324587E+08, -1.503444548321942E+08, 4.460805637438998E+07,
2460987.500000000, A.D. 2025-Nov-08 00:00:00.0000, 3.783943960746411E+08, -1.416041591515618E+08, 4.863453019185948E+07,
2460994.500000000, A.D. 2025-Nov-15 00:00:00.0000, 3.807617317905394E+08, -1.327619027167827E+08, 5.262596659742826E+07,
2461001.500000000, A.D. 2025-Nov-22 00:00:00.0000, 3.828542358831278E+08, -1.238238608117699E+08, 5.657941267378018E+07,
2461008.500000000, A.D. 2025-Nov-29 00:00:00.0000, 3.846697369313137E+08, -1.147962716035638E+08, 6.049191629879250E+07,
2461015.500000000, A.D. 2025-Dec-06 00:00:00.0000, 3.862061563949935E+08, -1.056854370497113E+08, 6.436052548857506E+07,
2461022.500000000, A.D. 2025-Dec-13 00:00:00.0000, 3.874615073718943E+08, -9.649772621889991E+07, 6.818228771978958E+07,
2461029.500000000, A.D. 2025-Dec-20 00:00:00.0000, 3.884338957035036E+08, -8.723957999606861E+07, 7.195424899718431E+07,
2461036.500000000, A.D. 2025-Dec-27 00:00:00.0000, 3.891215223630142E+08, -7.791751457343234E+07, 7.567345298012355E+07,
2461043.500000000, A.D. 2026-Jan-03 00:00:00.0000, 3.895226856750677E+08, -6.853812433633664E+07, 7.933694025615588E+07,
2461050.500000000, A.D. 2026-Jan-10 00:00:00.0000, 3.896357834865651E+08, -5.910808481614397E+07, 8.294174770100962E+07,
2461057.500000000, A.D. 2026-Jan-17 00:00:00.0000, 3.894593155310926E+08, -4.963415579433856E+07, 8.648490790155938E+07,
2461064.500000000, A.D. 2026-Jan-24 00:00:00.0000, 3.889918860757370E+08, -4.012318452714472E+07, 8.996344864243931E+07,
2461071.500000000, A.D. 2026-Jan-31 00:00:00.0000, 3.882322068855387E+08, -3.058210908963515E+07, 9.337439246026075E+07,
2461078.500000000, A.D. 2026-Feb-07 00:00:00.0000, 3.871791005795838E+08, -2.101796188837400E+07, 9.671475626245640E+07,
2461085.500000000, A.D. 2026-Feb-14 00:00:00.0000, 3.858315046436443E+08, -1.143787335004328E+07, 9.998155099343036E+07,
2461092.500000000, A.D. 2026-Feb-21 00:00:00.0000, 3.841884764965803E+08, -1.849075199863121E+06, 1.031717813654271E+08,
2461099.500000000, A.D. 2026-Feb-28 00:00:00.0000, 3.822491985358625E+08, 7.741097836901490E+06, 1.062824458538222E+08,
2461106.500000000, A.D. 2026-Mar-07 00:00:00.0000, 3.800129811185169E+08, 1.732520597481966E+07, 1.093105369946683E+08,
2461113.500000000, A.D. 2026-Mar-14 00:00:00.0000, 3.774792662680979E+08, 2.689569963081788E+07, 1.122530415476321E+08,
2461120.500000000, A.D. 2026-Mar-21 00:00:00.0000, 3.746476339045569E+08, 3.644491492517372E+07, 1.151069406063715E+08,
2461127.500000000, A.D. 2026-Mar-28 00:00:00.0000, 3.715178086052508E+08, 4.596507046954287E+07, 1.178692099368838E+08,
2461134.500000000, A.D. 2026-Apr-04 00:00:00.0000, 3.680896663129200E+08, 5.544826449548745E+07, 1.205368205345195E+08,
2461141.500000000, A.D. 2026-Apr-11 00:00:00.0000, 3.643632412832347E+08, 6.488647198302927E+07, 1.231067393594646E+08,
2461148.500000000, A.D. 2026-Apr-18 00:00:00.0000, 3.603387334487554E+08, 7.427154180416381E+07, 1.255759302496750E+08,
2461155.500000000, A.D. 2026-Apr-25 00:00:00.0000, 3.560165162621970E+08, 8.359519392078006E+07, 1.279413550226961E+08,
2461162.500000000, A.D. 2026-May-02 00:00:00.0000, 3.513971450668415E+08, 9.284901663548470E+07, 1.301999747764867E+08,
2461169.500000000, A.D. 2026-May-09 00:00:00.0000, 3.464813661362671E+08, 1.020244638603608E+08, 1.323487513890957E+08,
2461176.500000000, A.D. 2026-May-16 00:00:00.0000, 3.412701267787809E+08, 1.111128525755785E+08, 1.343846492113872E+08,
2461183.500000000, A.D. 2026-May-23 00:00:00.0000, 3.357645865731679E+08, 1.201053615367414E+08, 1.363046370484383E+08,
2461190.500000000, A.D. 2026-May-30 00:00:00.0000, 3.299661276700889E+08, 1.289930315942271E+08, 1.381056906647464E+08,
2461197.500000000, A.D. 2026-Jun-06 00:00:00.0000, 3.238763638588387E+08, 1.377667643993575E+08, 1.397847955988393E+08,
2461204.500000000, A.D. 2026-Jun-13 00:00:00.0000, 3.174971520812250E+08, 1.464173197439519E+08, 1.413389499907166E+08,
2461211.500000000, A.D. 2026-Jun-20 00:00:00.0000, 3.108306059007742E+08, 1.549353145121311E+08, 1.427651677284765E+08,
2461218.500000000, A.D. 2026-Jun-27 00:00:00.0000, 3.038791092362264E+08, 1.633112229643661E+08, 1.440604820658452E+08,
2461225.500000000, A.D. 2026-Jul-04 00:00:00.0000, 2.966453303650384E+08, 1.715353776437253E+08, 1.452219496731369E+08,
2461232.500000000, A.D. 2026-Jul-11 00:00:00.0000, 2.891322364533311E+08, 1.795979708422197E+08, 1.462466551144811E+08,
2461239.500000000, A.D. 2026-Jul-18 00:00:00.0000, 2.813431087032044E+08, 1.874890567282877E+08, 1.471317157727017E+08,
2461246.500000000, A.D. 2026-Jul-25 00:00:00.0000, 2.732815581350462E+08, 1.951985542193357E+08, 1.478742872485070E+08,
2461253.500000000, A.D. 2026-Aug-01 00:00:00.0000, 2.649515420403766E+08, 2.027162506386233E+08, 1.484715692552434E+08,
2461260.500000000, A.D. 2026-Aug-08 00:00:00.0000, 2.563573813013258E+08, 2.100318062144819E+08, 1.489208120172908E+08,
2461267.500000000, A.D. 2026-Aug-15 00:00:00.0000, 2.475037789664905E+08, 2.171347599716221E+08, 1.492193232021304E+08,
2461274.500000000, A.D. 2026-Aug-22 00:00:00.0000, 2.383958392868133E+08, 2.240145383388405E+08, 1.493644755841274E+08,
2461281.500000000, A.D. 2026-Aug-29 00:00:00.0000, 2.290390848721201E+08, 2.306604652119226E+08, 1.493537155645223E+08,
2461288.500000000, A.D. 2026-Sep-05 00:00:00.0000, 2.194394740450145E+08, 2.370617707260602E+08, 1.491845721505951E+08,
$$EOE